#aV2009  2 22  0  0   .00000000      96 DD+AD WGS84 FIT  NGA
## 1520       .00000000   900.00000000 54884  .0000000000000
+   31     2  3  4  5  6  7  8  9 10 11 12 13 14 15 16 17 18
+         19 20 21 22 23 24 25 26 27 28 29 30 31 32  0  0  0
+          0  0  0  0  0  0  0  0  0  0  0  0  0  0  0  0  0
+          0  0  0  0  0  0  0  0  0  0  0  0  0  0  0  0  0
+          0  0  0  0  0  0  0  0  0  0  0  0  0  0  0  0  0
++         0  0  0  0  0  0  0  0  0  0  0  0  0  0  0  0  0
++         0  0  0  0  0  0  0  0  0  0  0  0  0  0  0  0  0
++         0  0  0  0  0  0  0  0  0  0  0  0  0  0  0  0  0
++         0  0  0  0  0  0  0  0  0  0  0  0  0  0  0  0  0
++         0  0  0  0  0  0  0  0  0  0  0  0  0  0  0  0  0
%c cc cc ccc ccc cccc cccc cccc cccc ccccc ccccc ccccc ccccc
%c cc cc ccc ccc cccc cccc cccc cccc ccccc ccccc ccccc ccccc
%f  0.0000000  0.000000000  0.00000000000  0.000000000000000
%f  0.0000000  0.000000000  0.00000000000  0.000000000000000
%i    0    0    0    0      0      0      0      0         0
%i    0    0    0    0      0      0      0      0         0
/*      NGA, ST. LOUIS,MO.                                  
/*   EPHEMERIS COMPUTED FROM  3 DAYS OF DATA                
/* CCCCCCCCCCCCCCCCCCCCCCCCCCCCCCCCCCCCCCCCCCCCCCCCCCCCCCCCC
/* CCCCCCCCCCCCCCCCCCCCCCCCCCCCCCCCCCCCCCCCCCCCCCCCCCCCCCCCC
*  2009  2 22  0 30   .00000000                                                 
P  2  13453.046826  23093.246790  -1776.356316    156.648598                    
V  2  -1761.092151   3275.233710  30957.950566      -.011266                    
P  3 -18008.474346 -11346.753677 -16400.220062    356.251666                    
V  3  20087.767781  -3305.293330 -19787.300311       .050485                    
P  4   3397.314027  23942.534708  10418.667669   -345.439125                    
V  4  -9026.825999 -10687.664762  27531.613403      -.141072                    
P  5  18255.165809  -7930.781103  17230.096093      -.633944                    
V  5  -8652.023564  20936.830696  18608.375517      -.021382                    
P  6 -13320.762267 -13681.029337 -18287.229473     47.346477                    
V  6  23705.790666  -1612.302695 -15864.711326      -.150960                    
P  7 -11968.388692   9582.145618 -21695.416881     22.429807                    
V  7 -12709.472848 -24394.306740  -3872.167839      -.003475                    
P  8  -3050.898557  20392.417794 -16502.185428   -191.663895                    
V  8  -9817.935075 -18631.314639 -21756.237851      -.015702                    
P  9  17884.881596   8432.788039  17140.281381     41.749976                    
V  9   9658.969350  20898.357513 -19530.140486       .020633                    
P 10   9414.077387  12766.595666 -21413.721487    -11.532404                    
V 10 -15867.661146  21710.828798   6347.312203      -.005755                    
P 11 -20494.117625  -4517.517472  16265.677533      6.789485                    
V 11 -10936.403696 -18352.379710 -18292.798288      -.011764                    
P 12  18270.639893  -3930.541186  18906.618771   -313.601424                    
V 12 -12036.114626  20660.052164  16095.473043       .039432                    
P 13 -22325.663051   6083.765674 -13150.272614    289.349796                    
V 13 -16195.000743  -3172.783622  26278.144195       .012679                    
P 14   4005.754538 -14262.087950  22156.460728   -150.819217                    
V 14  27632.683553   2796.693885  -3316.684284       .054202                    
P 15  24252.674413   6942.025749  -8366.481494   -259.915371                    
V 15 -10758.865014   2214.304907 -29197.075378      -.051214                    
P 16  -3590.673822 -17975.872718 -19075.436370     72.856680                    
V 16  14970.630494 -19330.913189  15569.798243      -.028520                    
P 17  -6579.047439  14472.292557  21304.149151     47.810523                    
V 17 -26837.972309  -2626.713835  -6704.996614       .012956                    
P 18  16837.657850 -20003.416029  -3155.512667    -81.160217                    
V 18    518.284355   5636.309440 -31262.253709       .035895                    
P 19 -25086.106666  -7173.469803  -5529.854731     31.979958                    
V 19   7340.805926  -1706.965583 -30499.795671      -.006701                    
P 20 -18965.689633   6957.958489  17092.503425     90.106381                    
V 20   9882.998484 -19790.250037  18930.364449      -.010614                    
P 21   9930.278440 -13684.258186 -20111.860066     27.879243                    
V 21  12705.189004  23086.469876  -9947.498257      -.018445                    
P 22  10094.674484 -23451.821921   7359.577540    204.667688                    
V 22   7970.487856  -5601.291069 -29459.077171      -.006012                    
P 23 -26513.639883    563.211747  -3211.393153    387.370773                    
V 23  -3837.230309  -2477.227103  31461.772977       .006092                    
P 24  16489.840896    906.688194 -20613.149926    167.479797                    
V 24   9788.499057  24729.539878   9123.907859       .030752                    
P 25 -15375.803907   2806.032611 -21089.193603    257.627563                    
V 25 -14113.815889 -23762.383964   7197.674454       .243203                    
P 26  20351.494154  11279.649390 -13804.978311     46.301358                    
V 26 -16409.453775   -902.469556 -25390.461120       .027492                    
P 27  10010.897151  23928.426649  -4917.568766     26.632975                    
V 27  -5744.403591  -4877.204102 -31242.403919       .031414                    
P 28 -11401.157946  23198.348605   5709.343104    -23.606038                    
V 28  -6160.969409   3958.554396 -30972.838312       .000652                    
P 29  23123.880297  -6129.578037 -11399.177059     -7.864530                    
V 29  14399.966613   3643.709508  27039.654118       .034941                    
P 30  18213.911430 -15974.111428  10427.314915    127.930750                    
V 30  -4606.529404  13345.671585  27626.815062       .024085                    
P 31  -5592.241612 -24409.824441   8863.763853    -52.415243                    
V 31   7050.859850   8737.144440  29343.213791      -.013304                    
P 32 -16428.466110  -2677.207584  21050.921520    293.217107                    
V 32  15296.600399 -20853.475799   9704.682393      -.035376                    
EOF
